[{"OBJECT_NAME":"STARLINK-33885","OBJECT_ID":"2025-094Y","EPOCH":"2026-03-09T20:55:24.604320","MEAN_MOTION":14.98331241,"ECCENTRICITY":0.00030576,"INCLINATION":70.0018,"RA_OF_ASC_NODE":233.8651,"ARG_OF_PERICENTER":266.2522,"MEAN_ANOMALY":93.8288,"EPHEMERIS_TYPE":0,"CLASSIFICATION_TYPE":"U","NORAD_CAT_ID":63886,"ELEMENT_SET_NO":999,"REV_AT_EPOCH":4723,"BSTAR":0.0004096482,"MEAN_MOTION_DOT":4.798e-5,"MEAN_MOTION_DDOT":0},{"OBJECT_NAME":"BREEZE-KM R\/B","OBJECT_ID":"2016-011B","EPOCH":"2026-03-09T13:46:31.765728","MEAN_MOTION":15.28220455,"ECCENTRICITY":0.0143188,"INCLINATION":98.6722,"RA_OF_ASC_NODE":284.67,"ARG_OF_PERICENTER":63.2473,"MEAN_ANOMALY":298.3333,"EPHEMERIS_TYPE":0,"CLASSIFICATION_TYPE":"U","NORAD_CAT_ID":41336,"ELEMENT_SET_NO":999,"REV_AT_EPOCH":55224,"BSTAR":0.00023628,"MEAN_MOTION_DOT":8.734e-5,"MEAN_MOTION_DDOT":0}]
